0 ORBCOMM FM 2
1 23546U 95017B   13283.47776192  .00001245  00000-0  24691-3 0  5849
2 23546 069.9759 348.1892 0005843 115.5023 327.8379 14.64633268984541
0 ORBCOMM FM 2
1 23546U 95017B   13284.50517686  .00001376  00000-0  27151-3 0  5855
2 23546 069.9757 345.7296 0005807 113.0855 345.9899 14.64636097984693
0 ORBCOMM FM 2
1 23546U 95017B   13285.74215602  .00001460  00000-0  28715-3 0  5867
2 23546 069.9756 342.7685 0005810 110.2255 029.2658 14.64639468984878
0 ORBCOMM FM 2
1 23546U 95017B   13287.15584147  .00002181  00000-0  42263-3 0  5873
2 23546 069.9767 339.3869 0005817 108.6735 282.7211 14.64642872985085
0 ORBCOMM FM 2
1 23546U 95017B   13288.47169693  .00002475  00000-0  47765-3 0  5883
2 23546 069.9749 336.2340 0005762 104.1920 023.4334 14.64652390985274
0 ORBCOMM FM 2
1 23546U 95017B   13289.57044086  .00002556  00000-0  49276-3 0  5893
2 23546 069.9758 333.6065 0005755 103.2547 056.1841 14.64655413985439
0 ORBCOMM FM 2
1 23546U 95017B   13291.12961299  .00002213  00000-0  42837-3 0  5909
2 23546 069.9754 329.8736 0005719 099.7067 358.6267 14.64662255985662
0 ORBCOMM FM 2
1 23546U 95017B   13292.14685237  .00002175  00000-0  42120-3 0  5910
2 23546 069.9753 327.4380 0005716 097.3095 323.2402 14.64665405985818
0 ORBCOMM FM 2
1 23546U 95017B   13293.17158010  .00002463  00000-0  47515-3 0  5922
2 23546 069.9753 324.9844 0005705 095.0451 327.2090 14.64668933985966
0 ORBCOMM FM 2
1 23546U 95017B   13294.41345568  .00002860  00000-0  54957-3 0  5936
2 23546 069.9754 322.0109 0005683 091.8257 036.8170 14.64674176986142
0 ORBCOMM FM 2
1 23546U 95017B   13295.51206334  .00003073  00000-0  58954-3 0  5944
2 23546 069.9755 319.3805 0005683 089.3099 070.5207 14.64679592986302
